ONEWEB-0387             
1 49313U 21090AL  24145.28354736  .00000152  00000+0  34158-3 0  9997
2 49313  87.9222  64.5064 0001808  70.5461 289.5868 13.20774655130300
ONEWEB-0388             
1 49314U 21090AM  24145.33401938  .00000071  00000+0  14482-3 0  9999
2 49314  87.9143  94.9983 0001937  86.2711 273.8643 13.19726627126985
ONEWEB-0389             
1 50469U 21132A   24145.53234749  .00000073  00000+0  15484-3 0  9990
2 50469  87.9166 155.8773 0001785  76.8399 283.2931 13.17649783118830
ONEWEB-0390             
1 50470U 21132B   24145.53391852  .00000121  00000+0  27896-3 0  9995
2 50470  87.9166 155.8848 0002224  80.3641 279.7742 13.17650946118837
ONEWEB-0391             
1 50471U 21132C   24145.53550109  .00000067  00000+0  14051-3 0  9996
2 50471  87.9174 155.8656 0001672  81.5745 278.5576 13.17650653118835
ONEWEB-0392             
1 50472U 21132D   24145.56556488  .00000065  00000+0  13426-3 0  9999
2 50472  87.9161 155.8634 0001858  82.8184 277.3158 13.17651122118874
ONEWEB-0393             
1 50473U 21132E   24145.53881207  .00000085  00000+0  18537-3 0  9997
2 50473  87.9170 155.8425 0001871  82.0078 278.1265 13.17650363118865
ONEWEB-0394             
1 50474U 21132F   24145.49245368  .00000075  00000+0  15635-3 0  9990
2 50474  87.9123 125.4922 0001930  84.3487 275.7865 13.18685723122261
