<?xml version="1.0" encoding="UTF-8"?>
<ndm xmlns:xsi="http://www.w3.org/2001/XMLSchema-instance" xsi:noNamespaceSchemaLocation="https://sanaregistry.org/r/ndmxml_unqualified/ndmxml-2.0.0-master-2.0.xsd">
<omm id="CCSDS_OMM_VERS" version="2.0">
<header><CREATION_DATE/><ORIGINATOR/></header><body><segment><metadata><OBJECT_NAME>ONEWEB-0387</OBJECT_NAME><OBJECT_ID>2021-090AL</OBJECT_ID><CENTER_NAME>EARTH</CENTER_NAME><REF_FRAME>TEME</REF_FRAME><TIME_SYSTEM>UTC</TIME_SYSTEM><MEAN_ELEMENT_THEORY>SGP4</MEAN_ELEMENT_THEORY></metadata><data><meanElements><EPOCH>2024-05-24T06:48:18.491904</EPOCH><MEAN_MOTION>13.20774655</MEAN_MOTION><ECCENTRICITY>.0001808</ECCENTRICITY><INCLINATION>87.9222</INCLINATION><RA_OF_ASC_NODE>64.5064</RA_OF_ASC_NODE><ARG_OF_PERICENTER>70.5461</ARG_OF_PERICENTER><MEAN_ANOMALY>289.5868</MEAN_ANOMALY></meanElements><tleParameters><EPHEMERIS_TYPE>0</EPHEMERIS_TYPE><CLASSIFICATION_TYPE>U</CLASSIFICATION_TYPE><NORAD_CAT_ID>49313</NORAD_CAT_ID><ELEMENT_SET_NO>999</ELEMENT_SET_NO><REV_AT_EPOCH>13030</REV_AT_EPOCH><BSTAR>.34158E-3</BSTAR><MEAN_MOTION_DOT>.152E-5</MEAN_MOTION_DOT><MEAN_MOTION_DDOT>0</MEAN_MOTION_DDOT></tleParameters></data></segment></body></omm>
<omm id="CCSDS_OMM_VERS" version="2.0">
<header><CREATION_DATE/><ORIGINATOR/></header><body><segment><metadata><OBJECT_NAME>ONEWEB-0388</OBJECT_NAME><OBJECT_ID>2021-090AM</OBJECT_ID><CENTER_NAME>EARTH</CENTER_NAME><REF_FRAME>TEME</REF_FRAME><TIME_SYSTEM>UTC</TIME_SYSTEM><MEAN_ELEMENT_THEORY>SGP4</MEAN_ELEMENT_THEORY></metadata><data><meanElements><EPOCH>2024-05-24T08:00:59.274432</EPOCH><MEAN_MOTION>13.19726627</MEAN_MOTION><ECCENTRICITY>.0001937</ECCENTRICITY><INCLINATION>87.9143</INCLINATION><RA_OF_ASC_NODE>94.9983</RA_OF_ASC_NODE><ARG_OF_PERICENTER>86.2711</ARG_OF_PERICENTER><MEAN_ANOMALY>273.8643</MEAN_ANOMALY></meanElements><tleParameters><EPHEMERIS_TYPE>0</EPHEMERIS_TYPE><CLASSIFICATION_TYPE>U</CLASSIFICATION_TYPE><NORAD_CAT_ID>49314</NORAD_CAT_ID><ELEMENT_SET_NO>999</ELEMENT_SET_NO><REV_AT_EPOCH>12698</REV_AT_EPOCH><BSTAR>.14482E-3</BSTAR><MEAN_MOTION_DOT>.71E-6</MEAN_MOTION_DOT><MEAN_MOTION_DDOT>0</MEAN_MOTION_DDOT></tleParameters></data></segment></body></omm>
<omm id="CCSDS_OMM_VERS" version="2.0">
<header><CREATION_DATE/><ORIGINATOR/></header><body><segment><metadata><OBJECT_NAME>ONEWEB-0389</OBJECT_NAME><OBJECT_ID>2021-132A</OBJECT_ID><CENTER_NAME>EARTH</CENTER_NAME><REF_FRAME>TEME</REF_FRAME><TIME_SYSTEM>UTC</TIME_SYSTEM><MEAN_ELEMENT_THEORY>SGP4</MEAN_ELEMENT_THEORY></metadata><data><meanElements><EPOCH>2024-05-24T12:46:34.823136</EPOCH><MEAN_MOTION>13.17649783</MEAN_MOTION><ECCENTRICITY>.0001785</ECCENTRICITY><INCLINATION>87.9166</INCLINATION><RA_OF_ASC_NODE>155.8773</RA_OF_ASC_NODE><ARG_OF_PERICENTER>76.8399</ARG_OF_PERICENTER><MEAN_ANOMALY>283.2931</MEAN_ANOMALY></meanElements><tleParameters><EPHEMERIS_TYPE>0</EPHEMERIS_TYPE><CLASSIFICATION_TYPE>U</CLASSIFICATION_TYPE><NORAD_CAT_ID>50469</NORAD_CAT_ID><ELEMENT_SET_NO>999</ELEMENT_SET_NO><REV_AT_EPOCH>11883</REV_AT_EPOCH><BSTAR>.15484E-3</BSTAR><MEAN_MOTION_DOT>.73E-6</MEAN_MOTION_DOT><MEAN_MOTION_DDOT>0</MEAN_MOTION_DDOT></tleParameters></data></segment></body></omm>
<omm id="CCSDS_OMM_VERS" version="2.0">
<header><CREATION_DATE/><ORIGINATOR/></header><body><segment><metadata><OBJECT_NAME>ONEWEB-0390</OBJECT_NAME><OBJECT_ID>2021-132B</OBJECT_ID><CENTER_NAME>EARTH</CENTER_NAME><REF_FRAME>TEME</REF_FRAME><TIME_SYSTEM>UTC</TIME_SYSTEM><MEAN_ELEMENT_THEORY>SGP4</MEAN_ELEMENT_THEORY></metadata><data><meanElements><EPOCH>2024-05-24T12:48:50.560128</EPOCH><MEAN_MOTION>13.17650946</MEAN_MOTION><ECCENTRICITY>.0002224</ECCENTRICITY><INCLINATION>87.9166</INCLINATION><RA_OF_ASC_NODE>155.8848</RA_OF_ASC_NODE><ARG_OF_PERICENTER>80.3641</ARG_OF_PERICENTER><MEAN_ANOMALY>279.7742</MEAN_ANOMALY></meanElements><tleParameters><EPHEMERIS_TYPE>0</EPHEMERIS_TYPE><CLASSIFICATION_TYPE>U</CLASSIFICATION_TYPE><NORAD_CAT_ID>50470</NORAD_CAT_ID><ELEMENT_SET_NO>999</ELEMENT_SET_NO><REV_AT_EPOCH>11883</REV_AT_EPOCH><BSTAR>.27896E-3</BSTAR><MEAN_MOTION_DOT>.121E-5</MEAN_MOTION_DOT><MEAN_MOTION_DDOT>0</MEAN_MOTION_DDOT></tleParameters></data></segment></body></omm>
<omm id="CCSDS_OMM_VERS" version="2.0">
<header><CREATION_DATE/><ORIGINATOR/></header><body><segment><metadata><OBJECT_NAME>ONEWEB-0391</OBJECT_NAME><OBJECT_ID>2021-132C</OBJECT_ID><CENTER_NAME>EARTH</CENTER_NAME><REF_FRAME>TEME</REF_FRAME><TIME_SYSTEM>UTC</TIME_SYSTEM><MEAN_ELEMENT_THEORY>SGP4</MEAN_ELEMENT_THEORY></metadata><data><meanElements><EPOCH>2024-05-24T12:51:07.294176</EPOCH><MEAN_MOTION>13.17650653</MEAN_MOTION><ECCENTRICITY>.0001672</ECCENTRICITY><INCLINATION>87.9174</INCLINATION><RA_OF_ASC_NODE>155.8656</RA_OF_ASC_NODE><ARG_OF_PERICENTER>81.5745</ARG_OF_PERICENTER><MEAN_ANOMALY>278.5576</MEAN_ANOMALY></meanElements><tleParameters><EPHEMERIS_TYPE>0</EPHEMERIS_TYPE><CLASSIFICATION_TYPE>U</CLASSIFICATION_TYPE><NORAD_CAT_ID>50471</NORAD_CAT_ID><ELEMENT_SET_NO>999</ELEMENT_SET_NO><REV_AT_EPOCH>11883</REV_AT_EPOCH><BSTAR>.14051E-3</BSTAR><MEAN_MOTION_DOT>.67E-6</MEAN_MOTION_DOT><MEAN_MOTION_DDOT>0</MEAN_MOTION_DDOT></tleParameters></data></segment></body></omm>
<omm id="CCSDS_OMM_VERS" version="2.0">
<header><CREATION_DATE/><ORIGINATOR/></header><body><segment><metadata><OBJECT_NAME>ONEWEB-0392</OBJECT_NAME><OBJECT_ID>2021-132D</OBJECT_ID><CENTER_NAME>EARTH</CENTER_NAME><REF_FRAME>TEME</REF_FRAME><TIME_SYSTEM>UTC</TIME_SYSTEM><MEAN_ELEMENT_THEORY>SGP4</MEAN_ELEMENT_THEORY></metadata><data><meanElements><EPOCH>2024-05-24T13:34:24.805632</EPOCH><MEAN_MOTION>13.17651122</MEAN_MOTION><ECCENTRICITY>.0001858</ECCENTRICITY><INCLINATION>87.9161</INCLINATION><RA_OF_ASC_NODE>155.8634</RA_OF_ASC_NODE><ARG_OF_PERICENTER>82.8184</ARG_OF_PERICENTER><MEAN_ANOMALY>277.3158</MEAN_ANOMALY></meanElements><tleParameters><EPHEMERIS_TYPE>0</EPHEMERIS_TYPE><CLASSIFICATION_TYPE>U</CLASSIFICATION_TYPE><NORAD_CAT_ID>50472</NORAD_CAT_ID><ELEMENT_SET_NO>999</ELEMENT_SET_NO><REV_AT_EPOCH>11887</REV_AT_EPOCH><BSTAR>.13426E-3</BSTAR><MEAN_MOTION_DOT>.65E-6</MEAN_MOTION_DOT><MEAN_MOTION_DDOT>0</MEAN_MOTION_DDOT></tleParameters></data></segment></body></omm>
<omm id="CCSDS_OMM_VERS" version="2.0">
<header><CREATION_DATE/><ORIGINATOR/></header><body><segment><metadata><OBJECT_NAME>ONEWEB-0393</OBJECT_NAME><OBJECT_ID>2021-132E</OBJECT_ID><CENTER_NAME>EARTH</CENTER_NAME><REF_FRAME>TEME</REF_FRAME><TIME_SYSTEM>UTC</TIME_SYSTEM><MEAN_ELEMENT_THEORY>SGP4</MEAN_ELEMENT_THEORY></metadata><data><meanElements><EPOCH>2024-05-24T12:55:53.362848</EPOCH><MEAN_MOTION>13.17650363</MEAN_MOTION><ECCENTRICITY>.0001871</ECCENTRICITY><INCLINATION>87.9170</INCLINATION><RA_OF_ASC_NODE>155.8425</RA_OF_ASC_NODE><ARG_OF_PERICENTER>82.0078</ARG_OF_PERICENTER><MEAN_ANOMALY>278.1265</MEAN_ANOMALY></meanElements><tleParameters><EPHEMERIS_TYPE>0</EPHEMERIS_TYPE><CLASSIFICATION_TYPE>U</CLASSIFICATION_TYPE><NORAD_CAT_ID>50473</NORAD_CAT_ID><ELEMENT_SET_NO>999</ELEMENT_SET_NO><REV_AT_EPOCH>11886</REV_AT_EPOCH><BSTAR>.18537E-3</BSTAR><MEAN_MOTION_DOT>.85E-6</MEAN_MOTION_DOT><MEAN_MOTION_DDOT>0</MEAN_MOTION_DDOT></tleParameters></data></segment></body></omm>
<omm id="CCSDS_OMM_VERS" version="2.0">
<header><CREATION_DATE/><ORIGINATOR/></header><body><segment><metadata><OBJECT_NAME>ONEWEB-0394</OBJECT_NAME><OBJECT_ID>2021-132F</OBJECT_ID><CENTER_NAME>EARTH</CENTER_NAME><REF_FRAME>TEME</REF_FRAME><TIME_SYSTEM>UTC</TIME_SYSTEM><MEAN_ELEMENT_THEORY>SGP4</MEAN_ELEMENT_THEORY></metadata><data><meanElements><EPOCH>2024-05-24T11:49:07.997952</EPOCH><MEAN_MOTION>13.18685723</MEAN_MOTION><ECCENTRICITY>.000193</ECCENTRICITY><INCLINATION>87.9123</INCLINATION><RA_OF_ASC_NODE>125.4922</RA_OF_ASC_NODE><ARG_OF_PERICENTER>84.3487</ARG_OF_PERICENTER><MEAN_ANOMALY>275.7865</MEAN_ANOMALY></meanElements><tleParameters><EPHEMERIS_TYPE>0</EPHEMERIS_TYPE><CLASSIFICATION_TYPE>U</CLASSIFICATION_TYPE><NORAD_CAT_ID>50474</NORAD_CAT_ID><ELEMENT_SET_NO>999</ELEMENT_SET_NO><REV_AT_EPOCH>12226</REV_AT_EPOCH><BSTAR>.15635E-3</BSTAR><MEAN_MOTION_DOT>.75E-6</MEAN_MOTION_DOT><MEAN_MOTION_DDOT>0</MEAN_MOTION_DDOT></tleParameters></data></segment></body></omm>

</ndm>
